ONEWEB-0620             
1 55161U 23004X   24229.78665632  .00000479  00000+0  13165-2 0  9996
2 55161  87.8997 154.3772 0002325  85.8801 274.2593 13.11416347 78096
ONEWEB-0621             
1 55162U 23004Y   24229.35598485 -.00000485  00000+0 -14057-2 0  9991
2 55162  87.8993 154.4296 0002178  69.7795 290.3567 13.11414907 78016
ONEWEB-0622             
1 55163U 23004Z   24230.20036300 -.00000526  00000+0 -15187-2 0  9992
2 55163  87.8998 154.2792 0002880  82.1395 278.0060 13.11417269 78123
ONEWEB-0623             
1 55164U 23004AA  24230.17265046 -.00000295  00000+0 -79363-3 0  9990
2 55164  87.9188 139.1304 0002841  75.0706 285.0740 13.17648823 79482
ONEWEB-0624             
1 55165U 23004AB  24230.21365366  .00000061  00000+0  13557-3 0  9994
2 55165  87.8935 123.8873 0001873  72.2249 287.9084 13.12444497 80309
ONEWEB-0625             
1 55166U 23004AC  24230.23729068  .00001187  00000+0  30242-2 0  9999
2 55166  87.9186 139.1155 0001789  69.7302 290.4022 13.17644570 79486
ONEWEB-0626             
1 55167U 23004AD  24230.22759139  .00000171  00000+0  40614-3 0  9998
2 55167  87.9184 139.1184 0001969  92.0855 268.0502 13.17650278 79485
ONEWEB-0627             
1 55168U 23004AE  24230.21629024  .00000048  00000+0  89943-4 0  9999
2 55168  87.9184 139.1219 0002577  79.5043 280.6379 13.17648890 79489
